CORVUS BC2              
1 42846U 17042X   18141.71216672 -.00000018  00000-0  35486-5 0  9996
2 42846  97.5995  45.5382 0008143 288.3872  71.6461 14.91808689 46426
CORVUS BC1              
1 42847U 17042Y   18142.22815071  .00000135  00000-0  18682-4 0  9999
2 42847  97.5993  46.0811 0007800 285.9581  74.0779 14.91908026 46499
SILU-1 (SILKROAD 1)     
1 42903U 17021F   18141.46167825  .00021393  00000-0  17125-3 0  9990
2 42903  42.7780 129.9739 0010061 115.4594  22.2269 15.70561640 45721
MIRATA                  
1 43015U 17073C   18142.36484816  .00001576  00000-0  12971-3 0  9999
2 43015  97.7036  74.4666 0258500 355.9771   3.9359 14.78077346 27327
ASTERIA                 
1 43020U 98067NH  18142.37575103  .00004239  00000-0  60394-4 0  9990
2 43020  51.6407 143.9558 0003371  69.6128 290.5227 15.58742813 28466
DELLINGR (RBLE)         
1 43021U 98067NJ  18141.62901316  .00004707  00000-0  70142-4 0  9999
2 43021  51.6382 148.7015 0003104  62.3648 297.7659 15.57208492 28334
TECHEDSAT 6             
1 43026U 98067NK  18135.04917276  .24108771  12366-4  25107-2 0  9998
2 43026  51.6059 164.5237 0004943 311.1143  50.3672 16.36895032 27437
OSIRIS-3U               
1 43027U 98067NL  18142.39606304  .00019242  00000-0  21283-3 0  9990
2 43027  51.6369 141.0652 0004989  47.2708 312.8706 15.63031171 28381
AEROCUBE 7B             
1 43042U 17071F   18141.62294265  .00002096  00000-0  64167-4 0  9995
2 43042  51.6378 170.9138 0005056 162.8745 197.2410 15.38704738 25516
AEROCUBE 7C             
1 43043U 17071G   18141.55798684  .00002090  00000-0  64013-4 0  9996
2 43043  51.6381 171.2335 0005075 164.7254 195.3884 15.38700731 25479
CHEFSAT                 
1 43044U 17071H   18141.58125629  .00001713  00000-0  53031-4 0  9992
2 43044  51.6387 170.6528 0004895 164.7833 195.3299 15.39489253 25480
ASGARDIA 1              
1 43049U 17071N   18142.19049616  .00001682  00000-0  53261-4 0  9996
2 43049  51.6382 167.9621 0002365 181.6955 178.4021 15.38840744 25565
ISARA                   
1 43050U 17071P   18141.71081275  .00002628  00000-0  76227-4 0  9990
2 43050  51.6383 170.0174 0002190 176.7211 183.3788 15.39361140 25498
FAUNA                   
1 43052U 17071R   18142.44091394  .00001587  00000-0  50638-4 0  9997
2 43052  51.6384 166.6410 0002274 177.6948 182.4047 15.38964530 25607
CORVUS BC3              
1 43118U 18004H   18142.17654767  .00000654  00000-0  31573-4 0  9997
2 43118  97.5350 204.7127 0010709 177.1930 182.9367 15.22202185 19752
MICROMAS-2A             
1 43131U 18004W   18142.21141699  .00001615  00000-0  72336-4 0  9992
2 43131  97.5358 204.8288 0009878 179.2936 180.8316 15.22705942 19769
GOMX4-B                 
1 43196U 18015E   18141.87210835  .00000420  00000-0  20475-4 0  9995
2 43196  97.3426 271.3531 0017654 248.0276 111.9081 15.23537125 16529
GOMX4-A                 
1 43197U 18015F   18142.40554410  .00000528  00000-0  24920-4 0  9994
2 43197  97.3428 271.8775 0017724 247.3655 161.3840 15.23632580 16611
UBAKUSAT                
1 43466U 98067NP  18142.43539753  .00008086  00000-0  12479-3 0  9996
2 43466  51.6414 147.0098 0001292  75.1942  75.8314 15.55103593  1698
1KUNS-PF                
1 43467U 98067NQ  18142.23143162  .00006677  00000-0  10417-3 0  9994
2 43467  51.6398 148.0199 0003480  50.7635  40.0907 15.55142625  1660
IRAZU                   
1 43468U 98067NR  18141.25142828  .00011021  00000-0  16718-3 0  9993
2 43468  51.6400 152.9176 0001231  49.5621 310.5426 15.55152000101498
